start=new Date('2022-09-17T00:00:00.000Z').valueOf();
sats=[{"GP_ID":"212751127","REF_FRAME":"TEME","LAUNCH_DATE":"2022-07-17","BSTAR":"-0.02792700000000","EPHEMERIS_TYPE":"0","INCLINATION":"53.2173","COUNTRY_CODE":"US","FILE":"3575787","MEAN_MOTION":"15.40922244","EPOCH":"2022-09-16T22:00:00.999936","APOAPSIS":"444.295","MEAN_MOTION_DOT":"-0.01071443","CLASSIFICATION_TYPE":"U","TLE_LINE2":"2 53153  53.2173 105.9969 0001329  59.1561 250.8538 15.40922244  1309","SITE":"AFETR","CENTER_NAME":"EARTH","OBJECT_NAME":"STARLINK-4098","ELEMENT_SET_NO":"999","RCS_SIZE":"LARGE","REV_AT_EPOCH":"130","MEAN_MOTION_DDOT":"0.0000000000000","PERIOD":"93.451","MEAN_ANOMALY":"250.8538","NORAD_CAT_ID":"53153","OBJECT_ID":"2022-083X","RA_OF_ASC_NODE":"105.9969","TIME_SYSTEM":"UTC","PERIAPSIS":"442.482","TLE_LINE1":"1 53153U 22083X   22259.91667824 -.01071443  00000-0 -27927-1 0  9995","MEAN_ELEMENT_THEORY":"SGP4","ARG_OF_PERICENTER":"59.1561","ECCENTRICITY":"0.00013290","OBJECT_TYPE":"PAYLOAD","DECAY_DATE":null,"SEMIMAJOR_AXIS":"6821.523"},{"TIME_SYSTEM":"UTC","RA_OF_ASC_NODE":"105.9749","PERIAPSIS":"444.243","TLE_LINE1":"1 53154U 22083Y   22259.91667824 -.01070727  00000-0 -28462-1 0  9995","MEAN_ELEMENT_THEORY":"SGP4","ARG_OF_PERICENTER":"64.5391","ECCENTRICITY":"0.00013040","SEMIMAJOR_AXIS":"6823.267","DECAY_DATE":null,"OBJECT_TYPE":"PAYLOAD","ELEMENT_SET_NO":"999","RCS_SIZE":"LARGE","REV_AT_EPOCH":"130","MEAN_MOTION_DDOT":"0.0000000000000","MEAN_ANOMALY":"235.1378","PERIOD":"93.486","NORAD_CAT_ID":"53154","OBJECT_ID":"2022-083Y","APOAPSIS":"446.022","MEAN_MOTION_DOT":"-0.01070727","CLASSIFICATION_TYPE":"U","SITE":"AFETR","TLE_LINE2":"2 53154  53.2173 105.9749 0001304  64.5391 235.1378 15.40331458  1309","OBJECT_NAME":"STARLINK-4077","CENTER_NAME":"EARTH","GP_ID":"212750813","LAUNCH_DATE":"2022-07-17","REF_FRAME":"TEME","BSTAR":"-0.02846200000000","EPHEMERIS_TYPE":"0","INCLINATION":"53.2173","COUNTRY_CODE":"US","FILE":"3575787","MEAN_MOTION":"15.40331458","EPOCH":"2022-09-16T22:00:00.999936"},{"COUNTRY_CODE":"US","FILE":"3575787","MEAN_MOTION":"15.41499969","EPOCH":"2022-09-16T22:00:00.999936","GP_ID":"212751699","REF_FRAME":"TEME","LAUNCH_DATE":"2022-07-17","BSTAR":"-0.02740800000000","EPHEMERIS_TYPE":"0","INCLINATION":"53.2173","CLASSIFICATION_TYPE":"U","TLE_LINE2":"2 53155  53.2173 106.0171 0001265  63.8321 256.6307 15.41499969  1305","CENTER_NAME":"EARTH","SITE":"AFETR","OBJECT_NAME":"STARLINK-4088","APOAPSIS":"442.546","MEAN_MOTION_DOT":"-0.01072000","MEAN_MOTION_DDOT":"0.0000000000000","REV_AT_EPOCH":"130","PERIOD":"93.416","MEAN_ANOMALY":"256.6307","NORAD_CAT_ID":"53155","OBJECT_ID":"2022-083Z","ELEMENT_SET_NO":"999","RCS_SIZE":"LARGE","MEAN_ELEMENT_THEORY":"SGP4","ECCENTRICITY":"0.00012650","ARG_OF_PERICENTER":"63.8321","SEMIMAJOR_AXIS":"6819.819","DECAY_DATE":null,"OBJECT_TYPE":"PAYLOAD","RA_OF_ASC_NODE":"106.0171","TIME_SYSTEM":"UTC","PERIAPSIS":"440.821","TLE_LINE1":"1 53155U 22083Z   22259.91667824 -.01072000  00000-0 -27408-1 0  9991"},{"RA_OF_ASC_NODE":"106.0151","TIME_SYSTEM":"UTC","PERIAPSIS":"441.029","TLE_LINE1":"1 53156U 22083AA  22259.91667824 -.01071858  00000-0 -27466-1 0  9996","MEAN_ELEMENT_THEORY":"SGP4","ARG_OF_PERICENTER":"66.3026","ECCENTRICITY":"0.00012500","DECAY_DATE":null,"OBJECT_TYPE":"PAYLOAD","SEMIMAJOR_AXIS":"6820.017","ELEMENT_SET_NO":"999","RCS_SIZE":"LARGE","MEAN_MOTION_DDOT":"0.0000000000000","REV_AT_EPOCH":"130","PERIOD":"93.420","MEAN_ANOMALY":"252.4230","NORAD_CAT_ID":"53156","OBJECT_ID":"2022-083AA","APOAPSIS":"442.734","MEAN_MOTION_DOT":"-0.01071858","CLASSIFICATION_TYPE":"U","TLE_LINE2":"2 53156  53.2173 106.0151 0001250  66.3026 252.4230 15.41432749  1300","OBJECT_NAME":"STARLINK-4087","SITE":"AFETR","CENTER_NAME":"EARTH","GP_ID":"212750970","LAUNCH_DATE":"2022-07-17","REF_FRAME":"TEME","BSTAR":"-0.02746600000000","EPHEMERIS_TYPE":"0","INCLINATION":"53.2173","COUNTRY_CODE":"US","FILE":"3575787","MEAN_MOTION":"15.41432749","EPOCH":"2022-09-16T22:00:00.999936"},{"COUNTRY_CODE":"US","EPOCH":"2022-09-16T22:00:00.999936","FILE":"3575787","MEAN_MOTION":"15.42090794","LAUNCH_DATE":"2022-07-17","REF_FRAME":"TEME","GP_ID":"212751541","INCLINATION":"53.2173","BSTAR":"-0.02689000000000","EPHEMERIS_TYPE":"0","CLASSIFICATION_TYPE":"U","SITE":"AFETR","TLE_LINE2":"2 53157  53.2173 106.0382 0001347  54.1223 275.5841 15.42090794  1303","CENTER_NAME":"EARTH","OBJECT_NAME":"STARLINK-4093","APOAPSIS":"440.860","MEAN_MOTION_DOT":"-0.01072783","MEAN_MOTION_DDOT":"0.0000000000000","REV_AT_EPOCH":"130","OBJECT_ID":"2022-083AB","MEAN_ANOMALY":"275.5841","PERIOD":"93.380","NORAD_CAT_ID":"53157","RCS_SIZE":"LARGE","ELEMENT_SET_NO":"999","MEAN_ELEMENT_THEORY":"SGP4","DECAY_DATE":null,"OBJECT_TYPE":"PAYLOAD","SEMIMAJOR_AXIS":"6818.077","ECCENTRICITY":"0.00013470","ARG_OF_PERICENTER":"54.1223","PERIAPSIS":"439.023","RA_OF_ASC_NODE":"106.0382","TIME_SYSTEM":"UTC","TLE_LINE1":"1 53157U 22083AB  22259.91667824 -.01072783  00000-0 -26890-1 0  9995"},{"MEAN_MOTION_DOT":"-0.01071579","APOAPSIS":"443.360","TLE_LINE2":"2 53158  53.2173 106.0075 0001236  69.7777 245.1922 15.41217521  1307","CENTER_NAME":"EARTH","SITE":"AFETR","OBJECT_NAME":"STARLINK-4054","CLASSIFICATION_TYPE":"U","INCLINATION":"53.2173","BSTAR":"-0.02765700000000","EPHEMERIS_TYPE":"0","LAUNCH_DATE":"2022-07-17","REF_FRAME":"TEME","GP_ID":"212751229","EPOCH":"2022-09-16T22:00:00.999936","FILE":"3575787","MEAN_MOTION":"15.41217521","COUNTRY_CODE":"US","TLE_LINE1":"1 53158U 22083AC  22259.91667824 -.01071579  00000-0 -27657-1 0  9990","PERIAPSIS":"441.674","RA_OF_ASC_NODE":"106.0075","TIME_SYSTEM":"UTC","OBJECT_TYPE":"PAYLOAD","DECAY_DATE":null,"SEMIMAJOR_AXIS":"6820.652","ARG_OF_PERICENTER":"69.7777","ECCENTRICITY":"0.00012360","MEAN_ELEMENT_THEORY":"SGP4","RCS_SIZE":"LARGE","ELEMENT_SET_NO":"999","OBJECT_ID":"2022-083AC","MEAN_ANOMALY":"245.1922","PERIOD":"93.433","NORAD_CAT_ID":"53158","MEAN_MOTION_DDOT":"0.0000000000000","REV_AT_EPOCH":"130"},{"REV_AT_EPOCH":"130","MEAN_MOTION_DDOT":"0.0000000000000","OBJECT_ID":"2022-083AD","PERIOD":"93.344","MEAN_ANOMALY":"299.0475","NORAD_CAT_ID":"53159","RCS_SIZE":"LARGE","ELEMENT_SET_NO":"999","MEAN_ELEMENT_THEORY":"SGP4","DECAY_DATE":null,"SEMIMAJOR_AXIS":"6816.336","OBJECT_TYPE":"PAYLOAD","ARG_OF_PERICENTER":"39.3518","ECCENTRICITY":"0.00015940","PERIAPSIS":"437.114","TIME_SYSTEM":"UTC","RA_OF_ASC_NODE":"106.0590","TLE_LINE1":"1 53159U 22083AD  22259.91667824 -.01073620  00000-0 -26380-1 0  9992","COUNTRY_CODE":"US","EPOCH":"2022-09-16T22:00:00.999936","FILE":"3575787","MEAN_MOTION":"15.42681635","LAUNCH_DATE":"2022-07-17","REF_FRAME":"TEME","GP_ID":"212751910","INCLINATION":"53.2174","BSTAR":"-0.02638000000000","EPHEMERIS_TYPE":"0","CLASSIFICATION_TYPE":"U","SITE":"AFETR","TLE_LINE2":"2 53159  53.2174 106.0590 0001594  39.3518 299.0475 15.42681635  1307","CENTER_NAME":"EARTH","OBJECT_NAME":"STARLINK-4111","APOAPSIS":"439.287","MEAN_MOTION_DOT":"-0.01073620"},{"PERIOD":"93.398","MEAN_ANOMALY":"256.6251","NORAD_CAT_ID":"53160","OBJECT_ID":"2022-083AE","MEAN_MOTION_DDOT":"0.0000000000000","REV_AT_EPOCH":"130","ELEMENT_SET_NO":"999","RCS_SIZE":"LARGE","ARG_OF_PERICENTER":"68.5284","ECCENTRICITY":"0.00012240","OBJECT_TYPE":"PAYLOAD","DECAY_DATE":null,"SEMIMAJOR_AXIS":"6818.948","MEAN_ELEMENT_THEORY":"SGP4","TLE_LINE1":"1 53160U 22083AE  22259.91667824 -.01072223  00000-0 -27144-1 0  9991","RA_OF_ASC_NODE":"106.0275","TIME_SYSTEM":"UTC","PERIAPSIS":"439.978","FILE":"3575787","MEAN_MOTION":"15.41795288","EPOCH":"2022-09-16T22:00:00.999936","COUNTRY_CODE":"US","BSTAR":"-0.02714400000000","EPHEMERIS_TYPE":"0","INCLINATION":"53.2173","GP_ID":"212751385","LAUNCH_DATE":"2022-07-17","REF_FRAME":"TEME","SITE":"AFETR","TLE_LINE2":"2 53160  53.2173 106.0275 0001224  68.5284 256.6251 15.41795288  1302","CENTER_NAME":"EARTH","OBJECT_NAME":"STARLINK-4096","CLASSIFICATION_TYPE":"U","MEAN_MOTION_DOT":"-0.01072223","APOAPSIS":"441.647"},{"BSTAR":"-0.02560600000000","EPHEMERIS_TYPE":"0","INCLINATION":"53.2174","GP_ID":"212751128","REF_FRAME":"TEME","LAUNCH_DATE":"2022-07-17","FILE":"3575787","MEAN_MOTION":"15.43567365","EPOCH":"2022-09-16T22:00:00.999936","COUNTRY_CODE":"US","MEAN_MOTION_DOT":"-0.01058934","APOAPSIS":"436.402","TLE_LINE2":"2 53161  53.2174 106.0895 0001188  68.3432 282.0628 15.43567365  1300","CENTER_NAME":"EARTH","SITE":"AFETR","OBJECT_NAME":"STARLINK-4055","CLASSIFICATION_TYPE":"U","ELEMENT_SET_NO":"999","RCS_SIZE":"LARGE","MEAN_ANOMALY":"282.0628","PERIOD":"93.290","NORAD_CAT_ID":"53161","OBJECT_ID":"2022-083AF","REV_AT_EPOCH":"130","MEAN_MOTION_DDOT":"0.0000000000000","TLE_LINE1":"1 53161U 22083AF  22259.91667824 -.01058934  00000-0 -25606-1 0  9996","RA_OF_ASC_NODE":"106.0895","TIME_SYSTEM":"UTC","PERIAPSIS":"434.783","ECCENTRICITY":"0.00011880","ARG_OF_PERICENTER":"68.3432","SEMIMAJOR_AXIS":"6813.728","DECAY_DATE":null,"OBJECT_TYPE":"PAYLOAD","MEAN_ELEMENT_THEORY":"SGP4"},{"OBJECT_TYPE":"PAYLOAD","DECAY_DATE":null,"SEMIMAJOR_AXIS":"6817.207","ARG_OF_PERICENTER":"82.0832","ECCENTRICITY":"0.00011560","MEAN_ELEMENT_THEORY":"SGP4","TLE_LINE1":"1 53162U 22083AG  22259.91667824 -.01072561  00000-0 -26619-1 0  9994","PERIAPSIS":"438.284","TIME_SYSTEM":"UTC","RA_OF_ASC_NODE":"106.0484","OBJECT_ID":"2022-083AG","NORAD_CAT_ID":"53162","PERIOD":"93.362","MEAN_ANOMALY":"252.0386","MEAN_MOTION_DDOT":"0.0000000000000","REV_AT_EPOCH":"130","RCS_SIZE":"LARGE","ELEMENT_SET_NO":"999","TLE_LINE2":"2 53162  53.2173 106.0484 0001156  82.0832 252.0386 15.42385884  1307","CENTER_NAME":"EARTH","SITE":"AFETR","OBJECT_NAME":"STARLINK-4114","CLASSIFICATION_TYPE":"U","MEAN_MOTION_DOT":"-0.01072561","APOAPSIS":"439.860","EPOCH":"2022-09-16T22:00:00.999936","MEAN_MOTION":"15.42385884","FILE":"3575787","COUNTRY_CODE":"US","INCLINATION":"53.2173","EPHEMERIS_TYPE":"0","BSTAR":"-0.02661900000000","REF_FRAME":"TEME","LAUNCH_DATE":"2022-07-17","GP_ID":"212750814"}];
